STARLINK-32207          
1 60259U 24131E   25290.57289861 -.00000055  00000+0  10287-4 0  9999
2 60259  53.1611 357.4339 0001378  83.9841 276.1317 15.30194800 69808
STARLINK-32125          
1 60260U 24131F   25290.58756689  .00001666  00000+0  68387-4 0  9991
2 60260  53.1611 356.7991 0001592  99.5594 260.5586 15.30182706 69810
STARLINK-32160          
1 60261U 24131G   25290.51286227 -.00000959  00000+0 -20261-4 0  9996
2 60261  53.1616 357.7518 0001366  91.3738 268.7419 15.30183466 69843
STARLINK-32163          
1 60262U 24131H   25290.61078064  .00011641  00000+0  40432-3 0  9995
2 60262  53.1591 356.9438 0001276 109.1783 250.9355 15.30219144 69818
STARLINK-32148          
1 60263U 24131J   25290.48964094 -.00000135  00000+0  75808-5 0  9992
2 60263  53.1610 357.6064 0001059  96.3544 263.7577 15.30197970 69848
STARLINK-32121          
1 60264U 24131K   25290.55812463 -.00000939  00000+0 -19586-4 0  9996
2 60264  53.1616 357.3280 0001128  81.9731 278.1398 15.30196264 69854
STARLINK-32120          
1 60265U 24131L   25290.58661520  .00000130  00000+0  16520-4 0  9992
2 60265  53.1616 357.5011 0001342  94.1635 265.9519 15.30191186 69853
STARLINK-32205          
1 60266U 24131M   25290.57075685  .00004026  00000+0  14786-3 0  9992
2 60266  53.1628 357.4155 0001362  98.2666 261.8490 15.30229083 69802
STARLINK-32158          
1 60267U 24131N   25290.60337992  .00001196  00000+0  52511-4 0  9993
2 60267  53.1605 356.8933 0001137  71.7891 288.3233 15.30198571 69717
STARLINK-32167          
1 60268U 24131P   25290.58860669  .00000574  00000+0  31508-4 0  9995
2 60268  53.1611 356.8198 0001286  80.1746 279.9400 15.30204808 69810
STARLINK-32144          
1 60269U 24131Q   25290.61710330 -.00000966  00000+0 -20500-4 0  9996
2 60269  53.1601 356.9792 0000774  99.0209 261.0880 15.30213817 69864
STARLINK-32211          
1 60270U 24131R   25290.58028169  .00000202  00000+0  18936-4 0  9997
2 60270  53.1613 357.4778 0000957  77.0942 283.0166 15.30198022 69807
STARLINK-32164          
1 60271U 24131S   25290.45387453  .00000160  00000+0  17542-4 0  9993
2 60271  53.1616 358.0969 0001162  93.2937 266.8197 15.30191960 69686
STARLINK-32128          
1 60272U 24131T   25290.60022179  .00017561  00000+0  60340-3 0  9998
2 60272  53.1595 356.8793 0001430  92.5081 267.6084 15.30211988 69816
STARLINK-32206          
1 60273U 24131U   25290.57395191 -.00000329  00000+0  10153-5 0  9996
2 60273  53.1615 357.4334 0001411 117.0284 243.0861 15.30199246 69807
STARLINK-32155          
1 60274U 24131V   25290.56761950 -.00000568  00000+0 -70738-5 0  9997
2 60274  53.1608 357.3834 0001079 103.1798 256.9323 15.30197283 69704
STARLINK-32152          
1 60275U 24131W   25290.59703515 -.00010893  00000+0 -35551-3 0  9998
2 60275  53.1616 356.8568 0000997  77.9875 282.1238 15.30261223 69717
STARLINK-32154          
1 60276U 24131X   25290.59071590  .00000437  00000+0  26875-4 0  9991
2 60276  53.1611 356.8137 0001108  87.7302 272.3826 15.30202551 69818
STARLINK-32135          
1 60277U 24131Y   25290.47698860  .00012871  00000+0  44569-3 0  9998
2 60277  53.1597 357.5268 0001310  87.4880 272.6270 15.30217292 69799
STARLINK-32156          
1 60278U 24132A   25290.46750132  .00000204  00000+0  19001-4 0  9991
2 60278  53.1614 357.6005 0001300  93.8562 266.2588 15.30195622 70859
STARLINK-32010          
1 60279U 24132B   25290.56553046 -.00000558  00000+0 -67015-5 0  9991
2 60279  53.1622 357.5020 0001383  83.9503 276.1655 15.30197975 69644
STARLINK-32118          
1 60280U 24132C   25290.46116884  .00000566  00000+0  31224-4 0  9996
2 60280  53.1616 357.5586 0001330  68.7117 291.4025 15.30196993 69639
STARLINK-32038          
1 60281U 24132D   25290.46327918  .00001221  00000+0  53362-4 0  9995
2 60281  53.1609 357.5732 0001301  79.5584 280.5563 15.30193369 69631
STARLINK-32113          
1 60282U 24132E   25290.59495948  .00001559  00000+0  64768-4 0  9995
2 60282  53.1601 356.9742 0001383 101.1018 259.0138 15.30198384 69655
STARLINK-32037          
1 60283U 24132F   25290.48438722 -.00000297  00000+0  20870-5 0  9997
2 60283  53.1608 357.7028 0001057  78.3213 281.7906 15.30194042 69639
STARLINK-32123          
1 60284U 24132G   25290.42273804  .00000142  00000+0  16931-4 0  9990
2 60284  53.1611 345.2632 0001345  82.1666 277.9487 15.30201490 69808
STARLINK-32122          
1 60285U 24132H   25290.60868388 -.00001249  00000+0 -30051-4 0  9998
2 60285  53.1603 357.0580 0001078  87.6379 272.4745 15.30196782 69654
STARLINK-31656          
1 60286U 24132J   25290.58545684  .00001148  00000+0  50875-4 0  9999
2 60286  53.1614 356.9196 0001312  85.8506 274.2644 15.30204596 69652
STARLINK-32114          
1 60287U 24132K   25290.56974956 -.00001143  00000+0 -26471-4 0  9998
2 60287  53.1625 357.5214 0001344 101.3548 258.7604 15.30201040 69641
STARLINK-31997          
1 60288U 24132L   25290.57597034 -.00000507  00000+0 -49979-5 0  9990
2 60288  53.1611 356.8502 0001183 103.5614 256.5519 15.30191010 69655
STARLINK-32000          
1 60289U 24132M   25290.48755145 -.00000139  00000+0  74208-5 0  9993
2 60289  53.1620 357.7246 0001129  91.8390 268.2740 15.30201177 69631
STARLINK-32141          
1 60290U 24132N   25290.60234903  .00000563  00000+0  31133-4 0  9992
2 60290  53.1604 357.0167 0001207  69.5058 290.6072 15.30199290 69651
STARLINK-32142          
1 60291U 24132P   25290.51592867 -.00003381  00000+0 -10203-3 0  9996
2 60291  53.1621 357.1868 0001551 100.4125 259.7051 15.30209306 69644
STARLINK-32149          
1 60292U 24132Q   25290.49071970  .00004506  00000+0  16417-3 0  9992
2 60292  53.1602 357.7427 0001276  83.7886 276.3260 15.30198694 69635
STARLINK-32159          
1 60293U 24132R   25290.51383442 -.00001877  00000+0 -51306-4 0  9993
2 60293  53.1617 357.1751 0001297  74.5874 285.5270 15.30177667 69645
STARLINK-32150          
1 60294U 24132S   25290.49388672 -.00001442  00000+0 -36564-4 0  9998
2 60294  53.1619 357.7644 0000979  94.3254 265.7858 15.30197809 69634
STARLINK-32126          
1 60295U 24132T   25290.57185412  .00000443  00000+0  27066-4 0  9990
2 60295  53.1610 357.5339 0001014 109.0986 251.0124 15.30205768 69641
STARLINK-32143          
1 60296U 24132U   25290.56236301 -.00000565  00000+0 -69483-5 0  9991
2 60296  53.1609 357.4746 0001012 116.1102 244.0003 15.30195965 69643
STARLINK-32034          
1 60297U 24132V   25290.75002315  .00027929  00000+0  95252-3 0  9991
2 60297  53.1583 356.4594 0001247  89.0389 301.0240 15.30167126  5690
STARLINK-32124          
1 60298U 24132W   25290.62662247  .00000123  00000+0  16286-4 0  9992
2 60298  53.1605 357.1655 0000884  85.2603 274.8498 15.30198282 69650
STARLINK-32151          
1 60299U 24132X   25290.69436855 -.00002441  00000+0 -70355-4 0  9998
2 60299  53.1602 328.1869 0001211  92.1007 268.0133 15.30184001 70065
STARLINK-32134          
1 60300U 24132Y   25290.60445839  .00001692  00000+0  69257-4 0  9998
2 60300  53.1607 357.0275 0001281  68.2149 291.8988 15.30197560 69652
STARLINK-11147 [DTC]    
1 60301U 24133A   25290.70425096  .00066835  00000+0  55210-3 0  9997
2 60301  53.1569 131.3134 0000805  70.1251 289.9854 15.69709056 71276
STARLINK-11128 [DTC]    
1 60302U 24133B   25290.69935025 -.00001379  00000+0 -65349-5 0  9994
2 60302  53.1583 131.2793 0000463  77.4933 282.6137 15.69702171 71275
STARLINK-11227 [DTC]    
1 60303U 24133C   25290.69444035 -.00000807  00000+0 -18043-5 0  9995
2 60303  53.1577 131.2448 0000787 116.1389 243.9709 15.69704735 71353
STARLINK-11224 [DTC]    
1 60304U 24133D   25290.68953986 -.00002809  00000+0 -18342-4 0  9990
2 60304  53.1579 131.2127 0000522 108.7573 251.3501 15.69709286 71358
STARLINK-11115 [DTC]    
1 60305U 24133E   25290.68463134 -.00002960  00000+0 -19584-4 0  9999
2 60305  53.1579 131.1795 0001048  85.9794 274.1344 15.69707603 71274
STARLINK-11109 [DTC]    
1 60306U 24133F   25290.67972812 -.00001297  00000+0 -58594-5 0  9994
2 60306  53.1585 131.1472 0000759  52.3383 307.7704 15.69703853 71270
STARLINK-11223 [DTC]    
1 60307U 24133G   25290.66990345 -.00000296  00000+0  24095-5 0  9991
2 60307  53.1579 131.0813 0000924  98.5563 261.5559 15.69721965 71277
STARLINK-11192 [DTC]    
1 60308U 24133H   25290.67483807  .00030670  00000+0  25859-3 0  9998
2 60308  53.1581 131.1147 0002397 114.9062 245.2205 15.69565951 71273
STARLINK-11213 [DTC]    
1 60309U 24133J   25290.66500200 -.00001415  00000+0 -68208-5 0  9999
2 60309  53.1574 131.0470 0000791 111.9171 248.1931 15.69719295 71278
STARLINK-11200 [DTC]    
1 60310U 24133K   25290.72376970  .00000107  00000+0  57360-5 0  9995
2 60310  53.1578 130.7017 0000753  77.4796 282.6306 15.69708462 71288
STARLINK-11206 [DTC]    
1 60312U 24133M   25290.71406500  .00099264  00000+0  81414-3 0  9996
2 60312  53.1563 131.3703 0000208 245.8893 114.2103 15.69717916 71275
STARLINK-11205 [DTC]    
1 60313U 24133N   25290.70915456 -.00000414  00000+0  14374-5 0  9994
2 60313  53.1585 131.3370 0000871  89.7504 270.3614 15.69709292 71279
STARLINK-32191          
1 60314U 24133P   25290.59309270  .00000500  00000+0  29010-4 0  9990
2 60314  53.1596 241.5822 0001375  94.3320 265.7838 15.30195303 69730
STARLINK-32194          
1 60315U 24133Q   25290.28127675  .00004850  00000+0  17566-3 0  9998
2 60315  53.1599 243.1953 0001237  81.9185 278.1956 15.30221911 69683
STARLINK-32192          
1 60316U 24133R   25290.17904249 -.00000392  00000+0 -11020-5 0  9997
2 60316  53.1619 243.2698 0001009 104.7749 255.3363 15.30197979 69765
STARLINK-32189          
1 60317U 24133S   25290.60575914 -.00001072  00000+0 -24068-4 0  9990
2 60317  53.1591 241.6627 0001274  83.3864 276.7282 15.30195457 69826
STARLINK-32190          
1 60318U 24133T   25290.26966373  .00004324  00000+0  15794-3 0  9992
2 60318  53.1600 243.1168 0001415  96.6372 263.4790 15.30216850 69685
